FENGYUN 1C DEB          
1 35233U 99025DQR 17345.06973187  .00000822  00000-0  39859-3 0  9991
2 35233  98.9241  20.0109 0053793  97.6989 293.9454 14.20428544500531
